{
  "type": "FeatureCollection",
  "features": [
    {
      "type": "Feature",
      "properties": {
        "norad_id": 33887,
        "name": "IRIDIUM 33 DEB",
        "group": "iridium-33-debris",
        "lat": -7.780605060778249,
        "lon": -2.573898261901208,
        "alt_km": 775.778879511513,
        "timestamp": "2025-12-25T09:48:52.674437+00:00",
        "meta_object_name": "IRIDIUM 33 DEB",
        "meta_object_id": "1997-051BG",
        "meta_epoch": "2025-12-25T01:50:13.201152",
        "meta_mean_motion": 14.37231733,
        "meta_eccentricity": 0.0005785,
        "meta_inclination": 86.3043,
        "meta_ra_of_asc_node": 358.0753,
        "meta_arg_of_pericenter": 179.6912,
        "meta_mean_anomaly": 253.8578,
        "meta_ephemeris_type": 0,
        "meta_classification_type": "U",
        "meta_norad_cat_id": 33887,
        "meta_element_set_no": 999,
        "meta_rev_at_epoch": 88342,
        "meta_bstar": 0.00014792,
        "meta_mean_motion_dot": 4.6e-06,
        "meta_mean_motion_ddot": 0,
        "tle_line1": "1 33887U 97051BG  25359.07654168  .00000460  00000+0  14792-3 0  9997",
        "tle_line2": "2 33887  86.3043 358.0753 0005785 179.6912 253.8578 14.37231733883423"
      },
      "geometry": {
        "type": "Point",
        "coordinates": [
          -2.573898261901208,
          -7.780605060778249
        ]
      }
    },
    {
      "type": "Feature",
      "properties": {
        "norad_id": 33953,
        "name": "IRIDIUM 33 DEB",
        "group": "iridium-33-debris",
        "lat": -45.500750476425466,
        "lon": 44.589068510182415,
        "alt_km": 718.896210750856,
        "timestamp": "2025-12-25T09:48:52.674448+00:00",
        "meta_object_name": "IRIDIUM 33 DEB",
        "meta_object_id": "1997-051BN",
        "meta_epoch": "2025-12-25T03:40:07.885056",
        "meta_mean_motion": 14.55436981,
        "meta_eccentricity": 0.0017572,
        "meta_inclination": 86.3831,
        "meta_ra_of_asc_node": 48.3908,
        "meta_arg_of_pericenter": 64.7421,
        "meta_mean_anomaly": 349.0665,
        "meta_ephemeris_type": 0,
        "meta_classification_type": "U",
        "meta_norad_cat_id": 33953,
        "meta_element_set_no": 999,
        "meta_rev_at_epoch": 88484,
        "meta_bstar": 0.0011554,
        "meta_mean_motion_dot": 5.052e-05,
        "meta_mean_motion_ddot": 0,
        "tle_line1": "1 33953U 97051BN  25359.15286904  .00005052  00000+0  11554-2 0  9993",
        "tle_line2": "2 33953  86.3831  48.3908 0017572  64.7421 349.0665 14.55436981884843"
      },
      "geometry": {
        "type": "Point",
        "coordinates": [
          44.589068510182415,
          -45.500750476425466
        ]
      }
    },
    {
      "type": "Feature",
      "properties": {
        "norad_id": 33960,
        "name": "IRIDIUM 33 DEB",
        "group": "iridium-33-debris",
        "lat": 50.39626457268569,
        "lon": -71.91856963117436,
        "alt_km": 601.6144495474255,
        "timestamp": "2025-12-25T09:48:52.674458+00:00",
        "meta_object_name": "IRIDIUM 33 DEB",
        "meta_object_id": "1997-051BV",
        "meta_epoch": "2025-12-24T19:16:49.587744",
        "meta_mean_motion": 14.85784996,
        "meta_eccentricity": 0.00071456,
        "meta_inclination": 86.2538,
        "meta_ra_of_asc_node": 283.8251,
        "meta_arg_of_pericenter": 41.1857,
        "meta_mean_anomaly": 12.3181,
        "meta_ephemeris_type": 0,
        "meta_classification_type": "U",
        "meta_norad_cat_id": 33960,
        "meta_element_set_no": 999,
        "meta_rev_at_epoch": 89046,
        "meta_bstar": 0.003156851,
        "meta_mean_motion_dot": 0.0002755,
        "meta_mean_motion_ddot": 0,
        "tle_line1": "1 33960U 97051BV  25358.80335171  .00027550  00000+0  31569-2 0  9998",
        "tle_line2": "2 33960  86.2538 283.8251 0007145  41.1857  12.3181 14.85784996890461"
      },
      "geometry": {
        "type": "Point",
        "coordinates": [
          -71.91856963117436,
          50.39626457268569
        ]
      }
    },
    {
      "type": "Feature",
      "properties": {
        "norad_id": 33966,
        "name": "IRIDIUM 33 DEB",
        "group": "iridium-33-debris",
        "lat": 1.656270050645058,
        "lon": -139.5151248971008,
        "alt_km": 724.2452225745183,
        "timestamp": "2025-12-25T09:48:52.674468+00:00",
        "meta_object_name": "IRIDIUM 33 DEB",
        "meta_object_id": "1997-051CB",
        "meta_epoch": "2025-12-25T02:38:32.609760",
        "meta_mean_motion": 14.49640372,
        "meta_eccentricity": 0.0008753,
        "meta_inclination": 86.391,
        "meta_ra_of_asc_node": 40.7177,
        "meta_arg_of_pericenter": 149.9673,
        "meta_mean_anomaly": 269.6279,
        "meta_ephemeris_type": 0,
        "meta_classification_type": "U",
        "meta_norad_cat_id": 33966,
        "meta_element_set_no": 999,
        "meta_rev_at_epoch": 88621,
        "meta_bstar": 0.00049069,
        "meta_mean_motion_dot": 1.906e-05,
        "meta_mean_motion_ddot": 0,
        "tle_line1": "1 33966U 97051CB  25359.11009965  .00001906  00000+0  49069-3 0  9990",
        "tle_line2": "2 33966  86.3910  40.7177 0008753 149.9673 269.6279 14.49640372886210"
      },
      "geometry": {
        "type": "Point",
        "coordinates": [
          -139.5151248971008,
          1.656270050645058
        ]
      }
    },
    {
      "type": "Feature",
      "properties": {
        "norad_id": 34071,
        "name": "IRIDIUM 33 DEB",
        "group": "iridium-33-debris",
        "lat": -58.717665922776,
        "lon": -161.64039257078397,
        "alt_km": 741.204098398618,
        "timestamp": "2025-12-25T09:48:52.674479+00:00",
        "meta_object_name": "IRIDIUM 33 DEB",
        "meta_object_id": "1997-051CE",
        "meta_epoch": "2025-12-25T00:25:57.741024",
        "meta_mean_motion": 14.49517656,
        "meta_eccentricity": 0.0009863,
        "meta_inclination": 86.345,
        "meta_ra_of_asc_node": 12.4906,
        "meta_arg_of_pericenter": 74.9125,
        "meta_mean_anomaly": 285.317,
        "meta_ephemeris_type": 0,
        "meta_classification_type": "U",
        "meta_norad_cat_id": 34071,
        "meta_element_set_no": 999,
        "meta_rev_at_epoch": 88512,
        "meta_bstar": 0.00064466,
        "meta_mean_motion_dot": 2.491e-05,
        "meta_mean_motion_ddot": 0,
        "tle_line1": "1 34071U 97051CE  25359.01802941  .00002491  00000+0  64466-3 0  9990",
        "tle_line2": "2 34071  86.3450  12.4906 0009863  74.9125 285.3170 14.49517656885127"
      },
      "geometry": {
        "type": "Point",
        "coordinates": [
          -161.64039257078397,
          -58.717665922776
        ]
      }
    },
    {
      "type": "Feature",
      "properties": {
        "norad_id": 34077,
        "name": "IRIDIUM 33 DEB",
        "group": "iridium-33-debris",
        "lat": 63.04008475772565,
        "lon": 53.06563138365532,
        "alt_km": 668.500367969923,
        "timestamp": "2025-12-25T09:48:52.674489+00:00",
        "meta_object_name": "IRIDIUM 33 DEB",
        "meta_object_id": "1997-051CL",
        "meta_epoch": "2025-12-25T03:14:00.034368",
        "meta_mean_motion": 14.64988618,
        "meta_eccentricity": 0.0008744,
        "meta_inclination": 86.3848,
        "meta_ra_of_asc_node": 46.0463,
        "meta_arg_of_pericenter": 358.5908,
        "meta_mean_anomaly": 59.3441,
        "meta_ephemeris_type": 0,
        "meta_classification_type": "U",
        "meta_norad_cat_id": 34077,
        "meta_element_set_no": 999,
        "meta_rev_at_epoch": 88514,
        "meta_bstar": 0.0015691,
        "meta_mean_motion_dot": 8.432e-05,
        "meta_mean_motion_ddot": 0,
        "tle_line1": "1 34077U 97051CL  25359.13472262  .00008432  00000+0  15691-2 0  9994",
        "tle_line2": "2 34077  86.3848  46.0463 0008744 358.5908  59.3441 14.64988618885141"
      },
      "geometry": {
        "type": "Point",
        "coordinates": [
          53.06563138365532,
          63.04008475772565
        ]
      }
    },
    {
      "type": "Feature",
      "properties": {
        "norad_id": 34079,
        "name": "IRIDIUM 33 DEB",
        "group": "iridium-33-debris",
        "lat": -10.298671462569603,
        "lon": -176.4420845239684,
        "alt_km": 623.3631862961802,
        "timestamp": "2025-12-25T09:48:52.674499+00:00",
        "meta_object_name": "IRIDIUM 33 DEB",
        "meta_object_id": "1997-051CN",
        "meta_epoch": "2025-12-25T01:08:56.152032",
        "meta_mean_motion": 14.83849832,
        "meta_eccentricity": 0.0004071,
        "meta_inclination": 86.3776,
        "meta_ra_of_asc_node": 3.0626,
        "meta_arg_of_pericenter": 321.815,
        "meta_mean_anomaly": 100.8953,
        "meta_ephemeris_type": 0,
        "meta_classification_type": "U",
        "meta_norad_cat_id": 34079,
        "meta_element_set_no": 999,
        "meta_rev_at_epoch": 89160,
        "meta_bstar": 0.0019937,
        "meta_mean_motion_dot": 0.00016581,
        "meta_mean_motion_ddot": 0,
        "tle_line1": "1 34079U 97051CN  25359.04787213  .00016581  00000+0  19937-2 0  9992",
        "tle_line2": "2 34079  86.3776   3.0626 0004071 321.8150 100.8953 14.83849832891601"
      },
      "geometry": {
        "type": "Point",
        "coordinates": [
          -176.4420845239684,
          -10.298671462569603
        ]
      }
    }
  ]
}